OBJECT_NAME,OBJECT_ID,EPOCH,MEAN_MOTION,ECCENTRICITY,INCLINATION,RA_OF_ASC_NODE,ARG_OF_PERICENTER,MEAN_ANOMALY,EPHEMERIS_TYPE,CLASSIFICATION_TYPE,NORAD_CAT_ID,ELEMENT_SET_NO,REV_AT_EPOCH,BSTAR,MEAN_MOTION_DOT,MEAN_MOTION_DDOT
SAUDISAT 2,2004-025F,2026-07-12T13:57:01.836000,14.56697427,.00239287,98.5519,194.2206,216.4275,143.5295,0,U,28371,999,16944,.35824979E-4,.111E-5,0
COSMOS 2407,2004-028A,2026-07-12T13:59:37.148640,13.76336412,.0039127,82.9587,56.0223,179.3641,242.6390,0,U,28380,999,10337,.30123427E-4,.45E-6,0
COSMOS 2414,2005-002A,2026-07-12T13:15:20.330496,13.87928124,.0038709,82.9486,24.4548,256.6598,103.0248,0,U,28521,999,8733,.36071021E-4,.58E-6,0
INMARSAT 4-F1,2005-009A,2026-07-12T07:47:38.777568,1.00271047,.00024737,5.2012,42.7812,73.2040,109.2466,0,U,28628,999,7792,0,.3E-6,0
SJ-7,2005-024A,2026-07-12T12:55:09.679872,15.21911693,.00138196,97.7277,224.3283,306.9795,53.0174,0,U,28737,999,15188,.18992547E-3,.426E-4,0
CUBESAT XI-V,2005-043F,2026-07-11T09:17:30.194592,14.72696464,.00151315,98.3011,348.5214,126.3821,233.8784,0,U,28895,999,10531,.13420163E-3,.804E-5,0
HINODE (SOLAR-B),2006-041A,2026-07-12T12:43:25.870656,14.68656236,.00168172,98.0549,209.3092,203.1265,156.9185,0,U,29479,999,5859,.64454439E-4,.326E-5,0
SHIJIAN-6 02B (SJ-6 02B),2006-046B,2026-07-12T14:31:14.716416,15.01435667,.00137222,97.7154,222.5063,345.2102,14.8719,0,U,29506,999,7455,.69009324E-4,.831E-5,0
DMSP 5D-3 F17 (USA 191),2006-050A,2026-07-12T13:19:13.505952,14.14996094,.00098752,98.7386,199.6066,350.6218,9.4770,0,U,29522,999,1601,.18114308E-4,-.8E-7,0
LAPAN-TUBSAT,2007-001A,2026-07-12T13:45:27.817632,14.85978036,.00136144,98.1351,193.3705,101.2183,259.0563,0,U,29709,999,5492,.11068951E-3,.91E-5,0
HAIYANG-1B,2007-010A,2026-07-12T12:37:07.945824,14.31032894,.00145739,98.3513,174.3903,123.1700,237.0884,0,U,31113,999,426,.27499783E-4,.31E-6,0
COSMO-SKYMED 2,2007-059A,2026-07-12T14:42:00.534816,14.82149302,.00014252,97.8891,16.8424,93.7066,266.4310,0,U,32376,999,577,.31019027E-4,.195E-5,0
CARTOSAT-2A,2008-021A,2026-07-12T14:46:18.036192,14.79274246,.00127063,97.7627,241.4544,34.9714,325.2330,0,U,32783,999,98256,.54120449E-4,.353E-5,0
CUTE-1.7+APD II (CO-65),2008-021C,2026-07-12T13:40:30.532512,15.09684862,.00072592,97.8286,175.5222,310.1799,49.8793,0,U,32785,999,98902,.19855033E-3,.3132E-4,0
SEEDS II (CO-66),2008-021J,2026-07-12T12:34:23.646720,15.33607267,.00027939,97.7520,192.6480,162.8059,197.3278,0,U,32791,999,99117,.35129186E-3,.11335E-3,0
YUBILEINY (RS30),2008-025A,2026-07-12T14:38:24.959040,12.43180808,.00185654,82.5053,339.6247,254.9987,104.9038,0,U,32953,999,82285,.26003219E-3,.46E-6,0
FENGYUN 3A,2008-026A,2026-07-12T10:06:45.293184,14.19576112,.00097334,98.6887,133.7832,59.0166,301.1966,0,U,32958,999,93898,.25877397E-4,.11E-6,0
HUANJING 1A (HJ-1A),2008-041A,2026-07-12T14:03:49.930848,14.84046074,.00205009,97.6691,178.4439,57.5915,302.7280,0,U,33320,999,96217,.13342802E-3,.1064E-4,0
HUANJING 1B (HJ-1B),2008-041B,2026-07-12T15:13:13.397376,14.83360210,.00379055,97.6529,181.5846,99.2132,261.3373,0,U,33321,999,96218,.3759892E-5,-.21E-6,0
SHIJIAN-6 03A (SJ-6 03A),2008-053A,2026-07-12T15:17:08.115072,15.17404201,.0009606,97.8403,227.8446,286.4878,73.5299,0,U,33408,999,96682,.21944676E-3,.4318E-4,0
SHIJIAN-6 03B (SJ-6 03B),2008-053B,2026-07-12T15:24:11.455200,15.04378372,.00179764,97.8581,213.9551,320.4850,39.5064,0,U,33409,999,96657,.50922117E-4,.647E-5,0
